CZ-6A DEB               
1 54329U 22151BY  22331.06196725  .00002297  00000+0  51974-3 0  9999
2 54329  98.7360 336.3671 0169558 176.2595 183.9910 14.48733618  1609
CZ-6A DEB               
1 54330U 22151BZ  22330.89461208  .00001440  00000+0  71744-3 0  9998
2 54330  98.8027 335.7869 0063050 117.9616 242.7960 14.17488138  1542
CZ-6A DEB               
1 54331U 22151CA  22330.72721402  .00000545  00000+0  42630-3 0  9993
2 54331  98.7984 335.0147 0126746  48.2317 312.9594 13.92433090  1498
CZ-6A DEB               
1 54332U 22151CB  22330.47971758  .00001159  00000+0  59721-3 0  9998
2 54332  98.8006 335.3438 0043299 111.6271 248.9524 14.16624848  1497
CZ-6A DEB               
1 54333U 22151CC  22330.73407026  .00004008  00000+0  11476-2 0  9990
2 54333  98.7069 335.6626 0138546 254.5417 104.0433 14.40126088  1577
CZ-6A DEB               
1 54334U 22151CD  22330.73993075  .00004096  00000+0  11912-2 0  9997
2 54334  98.7084 335.6624 0136329 255.2192 103.3856 14.39546399  1578
CZ-6A DEB               
1 54335U 22151CE  22330.76864567  .00000408  00000+0  25655-3 0  9997
2 54335  98.7961 335.4294 0051632  63.9643 296.6830 14.09110744  1545
CZ-6A DEB               
1 54336U 22151CF  22331.08525900  .00000560  00000+0  36104-3 0  9999
2 54336  98.8079 335.7270 0061779  50.1305 310.5274 14.06018438  1597
CZ-6A DEB               
1 54337U 22151CG  22330.78472475  .00000223  00000+0  15578-3 0  9992
2 54337  98.8211 335.5401 0052424  42.0233 318.4939 14.07550656  1552
CZ-6A DEB               
1 54338U 22151CH  22330.55158490  .00000676  00000+0  40780-3 0  9991
2 54338  98.8307 335.4105 0043486  43.5503 316.9087 14.09511373  1522
CZ-6A DEB               
1 54339U 22151CJ  22330.83527589  .00000134  00000+0  10055-3 0  9993
2 54339  98.8076 335.5652 0044389  50.0110 310.4944 14.09528422  1562
CZ-6A DEB               
1 54340U 22151CK  22330.62757294  .00002405  00000+0  53476-3 0  9997
2 54340  98.7106 335.8286 0155951 226.4716 132.3434 14.50751602  1550
CZ-6A DEB               
1 54341U 22151CL  22330.96191462  .00000757  00000+0  38730-3 0  9998
2 54341  98.8055 335.8742 0051531 118.5019 242.1359 14.17794324  1566
CZ-6A DEB               
1 54342U 22151CM  22330.56872341  .00000086  00000+0  74908-4 0  9990
2 54342  98.7995 335.2223 0053419  52.9059 307.6976 14.07818566  1497
CZ-6A DEB               
1 54343U 22151CN  22330.76287312  .00000038  00000+0  45921-4 0  9991
2 54343  98.8139 335.5299 0043132  47.2204 313.2581 14.09664265  1521
CZ-6A DEB               
1 54344U 22151CP  22330.72284224  .00000154  00000+0  11680-3 0  9990
2 54344  98.8224 335.4650 0057630  47.7279 312.8755 14.06653902  1512
CZ-6A DEB               
1 54345U 22151CQ  22331.07024222  .00002736  00000+0  12441-2 0  9993
2 54345  98.7052 335.5264 0078401 293.4621  65.8329 14.20968005  1581
CZ-6A DEB               
1 54346U 22151CR  22331.00085125  .00003561  00000+0  83805-3 0  9996
2 54346  98.6508 335.8232 0154264 236.9975 121.6313 14.47985523  1601
CZ-6A DEB               
1 54347U 22151CS  22331.00566201  .00000306  00000+0  13572-3 0  9994
2 54347  98.7131 335.6546 0107128 278.8818  80.0246 14.27141539  1588
CZ-6A DEB               
1 54348U 22151CT  22330.75728081  .00000635  00000+0  24395-3 0  9992
2 54348  98.6945 335.3966 0107369 268.9254  89.9626 14.30885031  1558
CZ-6A DEB               
1 54349U 22151CU  22330.74571569  .00000449  00000+0  19723-3 0  9991
2 54349  98.7109 335.3364 0112636 285.9475  72.9317 14.25129229  1543
CZ-6A DEB               
1 54350U 22151CV  22330.80679903  .00000236  00000+0  10055-3 0  9994
2 54350  98.8161 336.1395 0069260 197.2388 162.6442 14.32874348  1564
CZ-6A DEB               
1 54351U 22151CW  22331.06706896  .00007358  00000+0  46894-2 0  9997
2 54351  99.0220 336.6470 0202291 336.9127  22.3040 13.94361130  1540
CZ-6A DEB               
1 54352U 22151CX  22331.00244424  .00004459  00000+0  11007-2 0  9993
2 54352  99.1014 338.0939 0202147 269.1472  88.6551 14.41056186  1603
CZ-6A DEB               
1 54353U 22151CY  22330.65772932  .00003557  00000+0  10850-2 0  9997
2 54353  99.1402 337.7537 0178694 278.4617  79.6348 14.33854661  1540
CZ-6A DEB               
1 54354U 22151CZ  22330.63206777  .00004267  00000+0  11976-2 0  9994
2 54354  98.8132 336.0419 0190424 275.3133  82.6352 14.36433312  1540
CZ-6A DEB               
1 54355U 22151DA  22330.56933191  .00149595  00000+0  73530-2 0  9992
2 54355  98.7995 337.1035 0297035 225.0921 132.5839 14.86485913  1584
CZ-6A DEB               
1 54356U 22151DB  22330.76771282  .00002021  00000+0  88832-3 0  9990
2 54356  98.9595 336.6270 0080380 287.7610  71.4808 14.22986488  1547
CZ-6A DEB               
1 54357U 22151DC  22330.84412049  .00224471  00000+0  74119-2 0  9990
2 54357  99.1640 339.5859 0317001 228.6159 128.7407 14.94134905  1631
CZ-6A DEB               
1 54358U 22151DD  22330.98103455  .00003396  00000+0  75768-3 0  9997
2 54358  98.5510 335.3164 0159642 233.1142 125.5331 14.49928958  1610
CZ-6A DEB               
1 54359U 22151DE  22330.73343274  .00006151  00000+0  15026-2 0  9998
2 54359  99.0784 337.6632 0212438 272.8117  84.8775 14.40213493  1543
CZ-6A DEB               
1 54360U 22151DF  22331.05709751  .00000738  00000+0  38380-3 0  9996
2 54360  98.6541 335.1106 0094035 310.6246  48.6777 14.15450785  1601
EOS-6 (OCEANSAT-3)      
1 54361U 22158A   22331.20879477 -.00000043  00000+0  00000+0 0  9998
2 54361  98.3545  65.9898 0011074 227.0516 132.9763 14.45830622   136
2022-158B               
1 54362U 22158B   22331.18363281 -.00000068  00000+0  00000+0 0  9994
2 54362  97.4626  66.5293 0022538 246.2041 202.3579 15.16672966   126
2022-158C               
1 54363U 22158C   22331.24351194 -.00000068  00000+0  00000+0 0  9992
2 54363  97.4497  66.4427 0010414 257.4739 165.4445 15.19058938   131
2022-158D               
1 54364U 22158D   22331.18232882 -.00000068  00000+0  00000+0 0  9998
2 54364  97.4513  66.3776 0010504 257.1968 191.3700 15.19064061   123
2022-158E               
1 54365U 22158E   22331.18226556 -.00000068  00000+0  00000+0 0  9990
2 54365  97.4456  66.3732 0010974 267.2375 181.7364 15.19316932   123
2022-158F               
1 54366U 22158F   22331.18217916 -.00000068  00000+0  00000+0 0  9991
2 54366  97.4438  66.3712 0009397 268.5370 180.6408 15.19546738   124
2022-158G               
1 54367U 22158G   22331.18192985 -.00000069  00000+0  00000+0 0  9991
2 54367  97.4479  66.3809 0007488 265.4723 183.6667 15.19997016   112
2022-158H               
1 54368U 22158H   22331.18232586 -.00000069  00000+0  00000+0 0  9994
2 54368  97.4505  66.3847 0007351 277.3361 174.2242 15.20083183   123
2022-158J               
1 54369U 22158J   22331.18170766 -.00000069  00000+0  00000+0 0  9996
2 54369  97.4472  66.3827 0007635 281.5161 167.0375 15.20194197   120
2022-158K               
1 54370U 22158K   22331.17596186 -.00000068  00000+0  00000+0 0  9994
2 54370  97.4511  66.3728 0010893 256.4876 157.2824 15.19063024   122
DRAGON CRS-26           
1 54371U 22159A   22331.26282998 -.03180831  00000+0 -54593-1 0  9998
2 54371  51.6576 248.7321 0002739 123.9035  13.2907 15.54153229    68
NOAA 1 [-]              
1 04793U 70106A   22330.76434563 -.00000026  00000+0  11190-3 0  9998
2 04793 101.5366  30.3575 0031456   6.8986 107.1066 12.54009333377936
NOAA 2 (ITOS-D) [-]     
1 06235U 72082A   22330.70726984 -.00000039  00000+0  45222-4 0  9999
2 06235 101.9728 314.0588 0004115 121.8809  51.5081 12.53154199292299
NOAA 3 [-]              
1 06920U 73086A   22330.77121740 -.00000048  00000+0 -15618-4 0  9998
2 06920 102.2274 312.8958 0006732 352.8870 182.1556 12.40350523220911
NOAA 4 [-]              
1 07529U 74089A   22330.73829862 -.00000033  00000+0  81719-4 0  9992
2 07529 101.9346 310.9656 0008920 152.1846 258.9429 12.53162802196875
NOAA 5 [-]              
1 09057U 76077A   22330.84523576 -.00000034  00000+0  85795-4 0  9993
2 09057 102.1241 297.2318 0009443 199.6194 189.8157 12.37776742 93833
TIROS N [-]             
1 11060U 78096A   22330.73262636  .00000113  00000+0  75305-4 0  9991
2 11060  98.6146  20.0078 0011149  41.2304 318.9712 14.18442235494610
NOAA 6 [-]              
1 11416U 79057A   22331.07105598  .00000179  00000+0  80450-4 0  9994
2 11416  98.6611 342.1712 0011095 134.7883 225.4205 14.33842690265032
NOAA 7 [-]              
1 12553U 81059A   22330.73770150  .00000061  00000+0  52506-4 0  9997
2 12553  98.9783  17.0035 0011738  19.3223 340.8394 14.17357898140782
NOAA 8 [-]              
1 13923U 83022A   22331.09945604  .00000083  00000+0  50462-4 0  9992
2 13923  98.7001 321.1204 0016138  93.5354 266.7674 14.28859183 65891
NOAA 9 [-]              
1 15427U 84123A   22330.86859914  .00000068  00000+0  57721-4 0  9996
2 15427  99.0672 305.9685 0015769  66.4807 323.0968 14.16248619959601
NOAA 10 [-]             
1 16969U 86073A   22330.72621426  .00000076  00000+0  47866-4 0  9992
2 16969  98.5848 314.0263 0011850 192.3110 341.3492 14.28247701883995
NOAA 11 [-]             
1 19531U 88089A   22330.72961092  .00000014  00000+0  28021-4 0  9999
2 19531  98.4419 311.0280 0012262  72.7547 287.4968 14.15336099763771
NOAA 12 [-]             
1 21263U 91032A   22330.78557428  .00000045  00000+0  36824-4 0  9990
2 21263  98.5223 326.1239 0012846 220.9148 139.1069 14.26030821639866
NOAA 13 [-]             
1 22739U 93050A   22330.76178771  .00000046  00000+0  47039-4 0  9990
2 22739  98.5262 302.6282 0008536 235.8640 124.1723 14.12884393509973
NOAA 14 [-]             
1 23455U 94089A   22330.78662123  .00000018  00000+0  30569-4 0  9999
2 23455  98.4370 348.6324 0008852 211.9625 148.1013 14.14221298439650
NOAA 15 [B]             
1 25338U 98030A   22331.04558007  .00000102  00000+0  60814-4 0  9996
2 25338  98.6290 358.3419 0010427 177.9272 182.1953 14.26200516276448
